OBJECT_NAME,OBJECT_ID,EPOCH,MEAN_MOTION,ECCENTRICITY,INCLINATION,RA_OF_ASC_NODE,ARG_OF_PERICENTER,MEAN_ANOMALY,EPHEMERIS_TYPE,CLASSIFICATION_TYPE,NORAD_CAT_ID,ELEMENT_SET_NO,REV_AT_EPOCH,BSTAR,MEAN_MOTION_DOT,MEAN_MOTION_DDOT
SKYSAT-C1,2016-040C,2026-06-22T08:41:00.844512,15.36374098,.00030303,96.9564,204.8012,48.3652,311.7852,0,U,41601,999,55866,.2007286E-3,.7047E-4,0
LAPAN-A3,2016-040E,2026-06-22T20:52:08.753664,15.33134574,.00101845,97.1491,169.8284,6.3111,353.8258,0,U,41603,999,55568,.82167874E-4,.2558E-4,0
GAOFEN-3,2016-049A,2026-06-22T20:12:59.198976,14.42215695,.000151,98.4016,181.5430,97.7580,262.3781,0,U,41727,999,51946,-.2214189E-5,-.51E-6,0
SKYSAT-C4,2016-058B,2026-06-22T12:01:54.220800,15.48729869,.00017276,96.9176,195.0509,138.5708,221.5675,0,U,41771,999,54629,.24803983E-3,.13215E-3,0
SKYSAT-C5,2016-058C,2026-06-22T09:15:47.585088,15.34531351,.00008846,97.0468,213.7943,259.2766,100.8379,0,U,41772,999,54454,.17769731E-3,.5869E-4,0
SKYSAT-C2,2016-058D,2026-06-22T07:41:45.652128,15.42168972,.00042717,97.0173,195.2225,59.8891,300.2780,0,U,41773,999,54584,.21596435E-3,.9179E-4,0
SKYSAT-C3,2016-058E,2026-06-22T08:43:50.841696,15.52730928,.00013344,96.9008,204.0110,106.2302,253.9099,0,U,41774,999,54691,.29505401E-3,.18146E-3,0
ALSAT-1B,2016-059C,2026-06-22T19:30:58.058208,14.72278669,.00084975,97.7753,182.3342,200.0214,160.0662,0,U,41785,999,52140,.77165647E-4,.44E-5,0
PATHFINDER 1,2016-059E,2026-06-22T19:05:05.545248,14.67667861,.00282645,97.8166,172.8184,185.4341,174.6562,0,U,41787,999,52053,.72357218E-4,.367E-5,0
SCATSAT 1,2016-059H,2026-06-22T10:05:56.231808,14.79534520,.00535957,98.1187,237.2410,230.2400,129.4084,0,U,41790,999,10236,.11203732E-3,.801E-5,0
GOKTURK 1A,2016-073A,2026-06-22T20:30:59.836608,14.62777293,.0001434,98.1241,68.4400,77.8309,282.3053,0,U,41875,999,50965,.24896015E-4,.8E-6,0
RESOURCESAT-2A,2016-074A,2026-06-22T20:12:39.906720,14.21617097,.00032802,98.7521,247.3006,73.6532,286.5006,0,U,41877,999,49510,-.19422108E-4,-.87E-6,0
CARTOSAT-2D,2017-008A,2026-06-22T19:44:52.338336,15.19242018,.00042108,97.4105,233.0233,210.9639,149.1348,0,U,41948,999,51843,.16570616E-3,.3424E-4,0
SENTINEL-2B,2017-013A,2026-06-22T19:14:43.855008,14.30818569,.0001175,98.5686,248.4974,89.4771,270.6546,0,U,42063,999,48544,.5633635E-4,.104E-5,0
CARTOSAT-2E,2017-036C,2026-06-22T20:10:19.138656,15.19289552,.00022062,97.4269,233.5500,288.9071,71.1925,0,U,42767,999,49900,.16880224E-3,.3494E-4,0
FORMOSAT-5,2017-049A,2026-06-22T18:38:40.227072,14.50900446,.00125712,98.2253,248.9625,68.9036,291.3502,0,U,42920,999,46748,.31966871E-4,.83E-6,0
SENTINEL-5P,2017-064A,2026-06-22T08:20:11.700096,14.19519726,.00009905,98.7925,115.4421,88.1912,271.9377,0,U,42969,999,45029,.32519268E-4,.24E-6,0
SKYSAT-C11,2017-068A,2026-06-22T17:01:17.704416,15.58143710,.00005188,97.4356,322.7817,109.7618,250.3694,0,U,42987,999,48410,.30716915E-3,.23055E-3,0
SKYSAT-C10,2017-068B,2026-06-22T15:20:05.648064,15.34715028,.00011322,97.4509,310.5397,103.0249,257.1121,0,U,42988,999,48319,.20798422E-3,.6916E-4,0
SKYSAT-C9,2017-068C,2026-06-22T15:02:02.439168,15.41676539,.00095569,97.4428,311.5138,115.9123,244.3110,0,U,42989,999,48359,.24563879E-3,.10288E-3,0
SKYSAT-C8,2017-068D,2026-06-22T08:11:54.132000,15.37060618,.00014312,97.4527,310.0588,95.4055,264.7352,0,U,42990,999,48310,.22578686E-3,.8105E-4,0
SKYSAT-C7,2017-068E,2026-06-22T15:51:41.582880,15.37017694,.00071673,97.4538,311.3723,90.9414,269.2652,0,U,42991,999,48321,.23192499E-3,.8322E-4,0
SKYSAT-C6,2017-068F,2026-06-22T08:44:45.846528,15.34286113,.00046331,97.4573,311.0223,124.5701,235.5980,0,U,42992,999,48311,.20962745E-3,.6879E-4,0
CARTOSAT-2F,2018-004A,2026-06-22T19:22:01.021728,15.19249410,.00012765,97.4787,233.3866,175.5498,184.5748,0,U,43111,999,46818,.13059752E-3,.2684E-4,0
GAOFEN-1 02,2018-031A,2026-06-22T20:32:12.316704,14.76412906,.00032787,98.0521,236.3672,17.8370,342.2954,0,U,43259,999,44353,.33033374E-4,.178E-5,0
GAOFEN-1 03,2018-031B,2026-06-22T20:00:38.574720,14.76475320,.00035914,98.0516,236.2032,67.5580,292.6010,0,U,43260,999,44352,.73442779E-4,.46E-5,0
GAOFEN-1 04,2018-031D,2026-06-22T21:03:25.663968,14.76441172,.00021114,98.0522,236.4381,70.6041,289.5397,0,U,43262,999,44352,.11742314E-3,.765E-5,0
SENTINEL-3B,2018-039A,2026-06-22T19:12:08.929440,14.26736123,.00007285,98.6245,241.2519,98.9933,261.1330,0,U,43437,999,42492,.45090599E-4,.65E-6,0
GAOFEN-5 01,2018-043A,2026-06-22T16:17:57.959520,14.60608288,.00029883,98.4571,145.3807,74.1582,285.9947,0,U,43461,999,43249,.51942691E-4,.203E-5,0
GAOFEN-6,2018-048A,2026-06-23T05:42:19.115136,14.76540927,.0011957,97.9971,236.9108,147.0258,213.1700,0,U,43484,999,43428,.13264E-3,.874E-5,0
