SKYSAT-C1               
1 41601U 16040C   26173.36181533  .00007047  00000+0  20073-3 0  9994
2 41601  96.9564 204.8012 0003030  48.3652 311.7852 15.36374098558667
LAPAN-A3                
1 41603U 16040E   26173.86954576  .00002558  00000+0  82168-4 0  9992
2 41603  97.1491 169.8284 0010184   6.3111 353.8258 15.33134574555680
GAOFEN-3                
1 41727U 16049A   26173.84235184 -.00000051  00000+0 -22142-5 0  9998
2 41727  98.4016 181.5430 0001510  97.7580 262.3781 14.42215695519469
SKYSAT-C4               
1 41771U 16058B   26173.50132200  .00013215  00000+0  24804-3 0  9994
2 41771  96.9176 195.0509 0001727 138.5708 221.5675 15.48729869546291
SKYSAT-C5               
1 41772U 16058C   26173.38596742  .00005869  00000+0  17770-3 0  9996
2 41772  97.0468 213.7943 0000884 259.2766 100.8379 15.34531351544544
SKYSAT-C2               
1 41773U 16058D   26173.32066727  .00009179  00000+0  21596-3 0  9995
2 41773  97.0173 195.2225 0004271  59.8891 300.2780 15.42168972545842
SKYSAT-C3               
1 41774U 16058E   26173.36378289  .00018146  00000+0  29505-3 0  9991
2 41774  96.9008 204.0110 0001334 106.2302 253.9099 15.52730928546914
ALSAT-1B                
1 41785U 16059C   26173.81317197  .00000440  00000+0  77166-4 0  9990
2 41785  97.7753 182.3342 0008497 200.0214 160.0662 14.72278669521400
PATHFINDER 1            
1 41787U 16059E   26173.79520307  .00000367  00000+0  72357-4 0  9993
2 41787  97.8166 172.8184 0028264 185.4341 174.6562 14.67667861520533
SCATSAT 1               
1 41790U 16059H   26173.42078972  .00000801  00000+0  11204-3 0  9999
2 41790  98.1187 237.2410 0053595 230.2400 129.4084 14.79534520102364
GOKTURK 1A              
1 41875U 16073A   26173.85485922  .00000080  00000+0  24896-4 0  9994
2 41875  98.1241  68.4400 0001434  77.8309 282.3053 14.62777293509656
RESOURCESAT-2A          
1 41877U 16074A   26173.84212855 -.00000087  00000+0 -19422-4 0  9997
2 41877  98.7521 247.3006 0003280  73.6532 286.5006 14.21617097495106
CARTOSAT-2D             
1 41948U 17008A   26173.82282799  .00003424  00000+0  16571-3 0  9993
2 41948  97.4105 233.0233 0004210 210.9639 149.1348 15.19242018518431
SENTINEL-2B             
1 42063U 17013A   26173.80189647  .00000104  00000+0  56336-4 0  9990
2 42063  98.5686 248.4974 0001175  89.4771 270.6546 14.30818569485447
CARTOSAT-2E             
1 42767U 17036C   26173.84049929  .00003494  00000+0  16880-3 0  9992
2 42767  97.4269 233.5500 0002206 288.9071  71.1925 15.19289552499002
FORMOSAT-5              
1 42920U 17049A   26173.77685448  .00000083  00000+0  31967-4 0  9996
2 42920  98.2253 248.9625 0012571  68.9036 291.3502 14.50900446467486
SENTINEL-5P             
1 42969U 17064A   26173.34735764  .00000024  00000+0  32519-4 0  9995
2 42969  98.7925 115.4421 0000990  88.1912 271.9377 14.19519726450298
SKYSAT-C11              
1 42987U 17068A   26173.70923269  .00023055  00000+0  30717-3 0  9994
2 42987  97.4356 322.7817 0000518 109.7618 250.3694 15.58143710484103
SKYSAT-C10              
1 42988U 17068B   26173.63895426  .00006916  00000+0  20798-3 0  9995
2 42988  97.4509 310.5397 0001132 103.0249 257.1121 15.34715028483191
SKYSAT-C9               
1 42989U 17068C   26173.62641712  .00010288  00000+0  24564-3 0  9994
2 42989  97.4428 311.5138 0009556 115.9123 244.3110 15.41676539483598
SKYSAT-C8               
1 42990U 17068D   26173.34159875  .00008105  00000+0  22579-3 0  9998
2 42990  97.4527 310.0588 0001431  95.4055 264.7352 15.37060618483104
SKYSAT-C7               
1 42991U 17068E   26173.66089795  .00008322  00000+0  23192-3 0  9990
2 42991  97.4538 311.3723 0007167  90.9414 269.2652 15.37017694483214
SKYSAT-C6               
1 42992U 17068F   26173.36441952  .00006879  00000+0  20963-3 0  9993
2 42992  97.4573 311.0223 0004633 124.5701 235.5980 15.34286113483114
CARTOSAT-2F             
1 43111U 18004A   26173.80695627  .00002684  00000+0  13060-3 0  9997
2 43111  97.4787 233.3866 0001276 175.5498 184.5748 15.19249410468180
GAOFEN-1 02             
1 43259U 18031A   26173.85569811  .00000178  00000+0  33033-4 0  9999
2 43259  98.0521 236.3672 0003278  17.8370 342.2954 14.76412906443533
GAOFEN-1 03             
1 43260U 18031B   26173.83377980  .00000460  00000+0  73443-4 0  9996
2 43260  98.0516 236.2032 0003591  67.5580 292.6010 14.76475320443520
GAOFEN-1 04             
1 43262U 18031D   26173.87738037  .00000765  00000+0  11742-3 0  9997
2 43262  98.0522 236.4381 0002111  70.6041 289.5397 14.76441172443523
SENTINEL-3B             
1 43437U 18039A   26173.80010335  .00000065  00000+0  45091-4 0  9994
2 43437  98.6245 241.2519 0000728  98.9933 261.1330 14.26736123424921
GAOFEN-5 01             
1 43461U 18043A   26173.67914305  .00000203  00000+0  51943-4 0  9998
2 43461  98.4571 145.3807 0002988  74.1582 285.9947 14.60608288432495
GAOFEN-6                
1 43484U 18048A   26174.23772124  .00000874  00000+0  13264-3 0  9999
2 43484  97.9971 236.9108 0011957 147.0258 213.1700 14.76540927434286
